CAS-2T & KS-1Q          
1 41847U 16066G   23076.91007513  .00002523  00000+0  38119-3 0  9993
2 41847  98.5135 145.8811 0362040 111.1936 252.8331 14.39382282333670
NAYIF-1 (EO-88)         
1 42017U 17008BX  23077.14447960  .00081989  00000+0  12453-2 0  9995
2 42017  97.2261 146.2031 0001817 324.9969  35.1165 15.54296209339222
ZHUHAI-1 02 (CAS-4B)    
1 42759U 17034B   23076.99565608  .00012636  00000+0  66500-3 0  9995
2 42759  43.0174 261.9610 0011415 237.7266 257.8199 15.15514238317791
ZHUHAI-1 01 (CAS-4A)    
1 42761U 17034D   23077.21832499  .00013953  00000+0  73089-3 0  9992
2 42761  43.0170 259.2980 0012027 240.5341 289.1812 15.15605952317835
MAX VALIER SAT          
1 42778U 17036P   23077.06928207  .00021709  00000+0  65131-3 0  9995
2 42778  97.1710 114.2734 0010613  77.8836 282.3596 15.34421852318739
RADFXSAT (FOX-1B)       
1 43017U 17073E   23076.91140660  .00011189  00000+0  79644-3 0  9990
2 43017  97.6445 324.8732 0238642  10.7795 349.8407 14.84597319287637
FOX-1D (AO-92)          
1 43137U 18004AC  23077.20581674  .00034128  00000+0  87175-3 0  9991
2 43137  97.3365 155.8241 0007220 111.9440 248.2574 15.39372457288275
DIWATA-2B               
1 43678U 18084H   23077.12355399  .00003141  00000+0  30737-3 0  9996
2 43678  98.0046 219.3606 0010725 100.9294 259.3095 14.93024129238678
ES'HAIL 2               
1 43700U 18090A   23076.76333156  .00000131  00000+0  00000+0 0  9997
2 43700   0.0160 144.7292 0001061 231.6065  99.3128  1.00273384 15773
FOX-1CLIFF (AO-95)      
1 43770U 18099N   23077.12866526  .00007240  00000+0  60490-3 0  9997
2 43770  97.5853 141.1374 0015478  79.7946 280.5022 14.98719715233962
ITASAT 1                
1 43786U 18099AE  23077.18212531  .00005578  00000+0  46938-3 0  9994
2 43786  97.5858 142.2216 0015333  73.8563 286.4347 14.98544115234013
JY1SAT (JO-97)          
1 43803U 18099AX  23076.40766506  .00007017  00000+0  57327-3 0  9998
2 43803  97.5867 141.3754 0015916  69.9114 290.3820 14.99593142233930
UWE-4                   
1 43880U 18111E   23076.46450011  .00007617  00000+0  60166-3 0  9996
2 43880  97.6471 343.1029 0017282 119.2709 241.0245 15.00843146230601
NEXUS (FO-99)           
1 43937U 19003F   23076.83200708  .00045857  00000+0  10290-2 0  9997
2 43937  97.1007 105.7352 0013805 243.3345 116.6490 15.43152455231914
JAISAT-1                
1 44419U 19038F   23076.93976783  .00028546  00000+0  11264-2 0  9993
2 44419  97.6683  55.9743 0012861 260.2725  99.7060 15.25432755204600
DUCHIFAT-3              
1 44854U 19089C   23076.97283375  .00013331  00000+0  93667-3 0  9998
2 44854  36.9658 275.7651 0009743 298.2999 213.8402 15.04500657179086
CAS-6 (TIANQIN 1)       
1 44881U 19093C   23077.17382747  .00002162  00000+0  27676-3 0  9996
2 44881  97.8660 157.1719 0015249  19.9569 340.2236 14.82277761175316
RS-44 & BREEZE-KM R/B   
1 44909U 19096E   23077.21940249  .00000041  00000+0  11683-3 0  9997
2 44909  82.5214  48.3815 0218304  39.8940 321.7978 12.79719163150571
ORBITAL FACTORY 2 (OF-2)
1 45113U 19071C   23077.16596395  .03597024  11948-4  14811-2 0  9999
2 45113  51.6116 124.8209 0006950  21.2669 338.8638 16.22432781176074
HUSKYSAT-1 (HO-107)     
1 45119U 19071J   23077.09747572  .00370071  00000+0  15556-2 0  9999
2 45119  51.6249 133.4473 0010085  38.7243 321.4481 15.83896244175944
BY70-2                  
1 45857U 20042B   23077.13166472  .00030474  00000+0  34360-2 0  9991
2 45857  97.9293 156.9659 0008318 296.0757  63.9530 14.86491456145999
SALSAT                  
1 46495U 20068K   23076.57343473  .00006504  00000+0  44113-3 0  9998
2 46495  97.7609  23.7285 0018097  73.6380 286.6835 15.06649018135273
BY70-3                  
1 46839U 20079N   23077.17396976  .00461017  00000+0  21582-2 0  9993
2 46839  97.1526 154.1944 0002689 296.5285 117.2470 15.82042757132708
RADFXSAT-2 (AO-109)     
1 47311U 21002C   23076.94858646  .00029224  00000+0  88175-3 0  9999
2 47311  60.6824  47.9984 0031390 125.5524 234.8502 15.33687538120269
UVSQ-SAT                
1 47438U 21006AB  23076.96481681  .00017677  00000+0  79182-3 0  9993
2 47438  97.3978 135.5256 0011051  49.8410 310.3792 15.21256206118760
DIY-1 (ARDUIQUBE)       
1 47963U 21022AH  23076.97100473  .00099166  00000+0  29501-2 0  9994
2 47963  97.5095 342.3783 0006161 256.1433 103.9124 15.34319692108499
XW-3 (CAS-9)            
1 50466U 21131B   23077.21156114  .00000940  00000+0  32065-3 0  9990
2 50466  98.5552 159.0414 0005259  64.6702 295.5029 14.38755026 64279
TEVEL-3                 
1 50988U 22002E   23077.08256954  .00028721  00000+0  12884-2 0  9998
2 50988  97.4442 144.8779 0009055 186.6229 260.9548 15.21124849 64893
TEVEL-8                 
1 50989U 22002F   23077.03120855  .00028801  00000+0  12943-2 0  9999
2 50989  97.4452 144.8757 0009124 186.2282 258.0646 15.21061546 64883
TEVEL-5                 
1 50998U 22002Q   23077.07180385  .00029613  00000+0  13019-2 0  9994
2 50998  97.4441 145.1558 0010494 182.7765 263.1177 15.21794409 64914
TEVEL-6                 
1 50999U 22002R   23077.12597292  .00029625  00000+0  13020-2 0  9995
2 50999  97.4440 145.2051 0010658 181.3549 208.4974 15.21803475 64922
TEVEL-1                 
1 51013U 22002AF  23077.09030325  .00028687  00000+0  12881-2 0  9999
2 51013  97.4437 144.8411 0009087 186.1514 263.6027 15.21089661 64891
TEVEL-7                 
1 51062U 22002CG  23077.03316953  .00028896  00000+0  12982-2 0  9995
2 51062  97.4443 144.8525 0008986 185.7844 259.4064 15.21071368 64884
TEVEL-4                 
1 51063U 22002CH  23077.03659331  .00028796  00000+0  12950-2 0  9990
2 51063  97.4447 144.8463 0009087 185.6088 259.4763 15.21035326 64882
TEVEL-2                 
1 51069U 22002CP  23077.08445487  .00028714  00000+0  12880-2 0  9998
2 51069  97.4436 144.8546 0008982 186.9564 260.6542 15.21125500 64898
GREENCUBE               
1 53106U 22080B   23075.13340333 -.00000003  00000+0  00000+0 0  9996
2 53106  70.1817 352.0525 0008319 207.8404 152.1811  6.42557089 15774
RS29S (SXC3-2110 CYCLO*)
1 53373U 22096D   23077.15434789  .00040777  00000+0  12816-2 0  9994
2 53373  97.4212 342.7639 0003544  88.3697  19.6678 15.32862241 33714
RS32S (SXC3-212 MONITO*)
1 53374U 22096E   23077.15313575  .00038242  00000+0  12119-2 0  9994
2 53374  97.4196 342.7458 0003857  87.3784  18.7073 15.32612516 33715
RS34S (SXC3-218 KUZBAS*)
1 53375U 22096F   23077.08249264  .00032126  00000+0  10573-2 0  9997
2 53375  97.4218 342.5553 0003766  87.2594  25.5115 15.31435301 33696
RS23S (SXC3-21 UTMN)    
1 53376U 22096G   23077.13734618  .00034485  00000+0  11218-2 0  9993
2 53376  97.4217 342.6446 0003840  87.0519  51.8126 15.31795726 33702
RS28S (SXC3-214 MIET-A*)
1 53377U 22096H   23077.21800947  .00031266  00000+0  10308-2 0  9995
2 53377  97.4219 342.7019 0003777  81.3752  77.1728 15.31385287 33714
RS26S (KAI-1)           
1 53378U 22096J   23077.18744898  .00026381  00000+0  89281-3 0  9993
2 53378  97.4226 342.5903 0003542  80.6485  75.4714 15.30575137 33707
RS19S (SXC3-219 ISOI)   
1 53381U 22096M   23077.07182398  .00033332  00000+0  10757-2 0  9991
2 53381  97.4217 342.7203 0005859  49.4243  65.7587 15.32049076 33704
RS21S (CUBESX-HSE-2)    
1 53383U 22096P   23077.19945997  .00033972  00000+0  10906-2 0  9994
2 53383  97.4213 342.8768 0005952  47.7377 105.5428 15.32215193 33726
RS30S (SXC3-217 SIREN)  
1 53384U 22096Q   23077.16063108  .00029923  00000+0  98357-3 0  9995
2 53384  97.4221 342.7701 0005880  44.5661  94.1627 15.31482358 33714
RS20S (GEOSCAN-EDELVEIS)
1 53385U 22096R   23077.21413220  .00042985  00000+0  12947-2 0  9999
2 53385  97.4209 343.1482 0006411  44.2293 107.0041 15.34193042 33773
RS33S (SXC3-215 VIZARD) 
1 53386U 22096S   23077.22356414  .00054788  00000+0  15519-2 0  9994
2 53386  97.4212 343.4259 0006995  44.7936  77.3851 15.36062179 33786
CAS-5A (FO-118)         
1 54684U 22167C   23077.16420170  .00019230  00000+0  11371-2 0  9994
2 54684  97.5448 215.6030 0013798 287.5755 246.2450 15.11426253 14918
